STARLINK-36439          
1 67624U 26020H   26053.90346884  .00224865  00000+0  13407-2 0  9996
2 67624  42.9987 231.9298 0003934 283.5024  76.5408 15.76476751  3757
STARLINK-36438          
1 67625U 26020J   26053.78332383  .00389365  00000+0  22730-2 0  9998
2 67625  42.9991 232.7521 0000892 167.8147 192.2744 15.76493325  3734
STARLINK-36436          
1 67626U 26020K   26053.91668981  .00076520  00000+0  47001-3 0  9995
2 67626  42.9998 231.5414 0001523 279.2433 280.3212 15.76301031  5012
STARLINK-36502          
1 67627U 26020L   26053.91668981  .00012000  00000+0  76638-4 0  9998
2 67627  42.9995 231.3853 0001968 269.7685 351.9549 15.76347808  5011
STARLINK-36532          
1 67628U 26020M   26052.00002315 -.01059876  00000+0 -56007-2 0  9992
2 67628  42.9990 243.0484 0001753 255.9501 269.5962 15.82335971  4706
STARLINK-36367          
1 67629U 26020N   26053.82916268  .00215640  00000+0  12876-2 0  9991
2 67629  42.9975 232.2243 0002522 281.7095  78.3492 15.76473946  3748
STARLINK-36416          
1 67630U 26020P   26053.90785552  .00124953  00000+0  75723-3 0  9999
2 67630  42.9980 231.9646 0001539 286.7585  73.3115 15.76420619  3752
STARLINK-36527          
1 67631U 26020Q   26053.86391818  .00411780  00000+0  18649-2 0  9993
2 67631  42.9984 231.6086 0003436 320.3353  39.7267 15.82033993  3754
STARLINK-36633          
1 67632U 26020R   26053.91668981  .00034228  00000+0  21277-3 0  9998
2 67632  42.9998 231.4791 0001423 253.2854 331.1656 15.76319483  5011
STARLINK-36637          
1 67633U 26020S   26053.84230788  .00399718  00000+0  23299-2 0  9994
2 67633  42.9984 232.3326 0002388 300.5102  59.5532 15.76500454  3746
STARLINK-36617          
1 67634U 26020T   26052.66235803  .00361859  00000+0  16589-2 0  9996
2 67634  42.9998 238.9420 0007515 299.3204  60.6916 15.81877180  3562
STARLINK-36627          
1 67635U 26020U   26053.77237652  .00315873  00000+0  18620-2 0  9997
2 67635  42.9984 232.6628 0000219 228.6121 131.4730 15.76477140  3732
