CCSDS_OMM_VERS = 2.0
CREATION_DATE  = 
ORIGINATOR     = 

OBJECT_NAME    = STARLINK-36439
OBJECT_ID      = 2026-020H
CENTER_NAME    = EARTH
REF_FRAME      = TEME
TIME_SYSTEM    = UTC
MEAN_ELEMENT_THEORY = SGP/SGP4

EPOCH          = 2026-02-22T21:40:59.707776
MEAN_MOTION    = 15.76476751
ECCENTRICITY   = .00039349
INCLINATION    = 42.9987
RA_OF_ASC_NODE = 231.9298
ARG_OF_PERICENTER = 283.5024
MEAN_ANOMALY   = 76.5408

EPHEMERIS_TYPE = 0
CLASSIFICATION_TYPE = U
NORAD_CAT_ID   = 67624
ELEMENT_SET_NO = 999
REV_AT_EPOCH   = 375
BSTAR          = .13406653E-2
MEAN_MOTION_DOT = .224865E-2
MEAN_MOTION_DDOT = 0

CCSDS_OMM_VERS = 2.0
CREATION_DATE  = 
ORIGINATOR     = 

OBJECT_NAME    = STARLINK-36438
OBJECT_ID      = 2026-020J
CENTER_NAME    = EARTH
REF_FRAME      = TEME
TIME_SYSTEM    = UTC
MEAN_ELEMENT_THEORY = SGP/SGP4

EPOCH          = 2026-02-22T18:47:59.178912
MEAN_MOTION    = 15.76493325
ECCENTRICITY   = .00008922
INCLINATION    = 42.9991
RA_OF_ASC_NODE = 232.7521
ARG_OF_PERICENTER = 167.8147
MEAN_ANOMALY   = 192.2744

EPHEMERIS_TYPE = 0
CLASSIFICATION_TYPE = U
NORAD_CAT_ID   = 67625
ELEMENT_SET_NO = 999
REV_AT_EPOCH   = 373
BSTAR          = .22729989E-2
MEAN_MOTION_DOT = .389365E-2
MEAN_MOTION_DDOT = 0

CCSDS_OMM_VERS = 2.0
CREATION_DATE  = 
ORIGINATOR     = 

OBJECT_NAME    = STARLINK-36436
OBJECT_ID      = 2026-020K
CENTER_NAME    = EARTH
REF_FRAME      = TEME
TIME_SYSTEM    = UTC
MEAN_ELEMENT_THEORY = SGP/SGP4

EPOCH          = 2026-02-22T22:00:01.999584
MEAN_MOTION    = 15.76301031
ECCENTRICITY   = .00015231
INCLINATION    = 42.9998
RA_OF_ASC_NODE = 231.5414
ARG_OF_PERICENTER = 279.2433
MEAN_ANOMALY   = 280.3212

EPHEMERIS_TYPE = 0
CLASSIFICATION_TYPE = U
NORAD_CAT_ID   = 67626
ELEMENT_SET_NO = 999
REV_AT_EPOCH   = 501
BSTAR          = .47000991E-3
MEAN_MOTION_DOT = .7652E-3
MEAN_MOTION_DDOT = 0

CCSDS_OMM_VERS = 2.0
CREATION_DATE  = 
ORIGINATOR     = 

OBJECT_NAME    = STARLINK-36502
OBJECT_ID      = 2026-020L
CENTER_NAME    = EARTH
REF_FRAME      = TEME
TIME_SYSTEM    = UTC
MEAN_ELEMENT_THEORY = SGP/SGP4

EPOCH          = 2026-02-22T22:00:01.999584
MEAN_MOTION    = 15.76347808
ECCENTRICITY   = .00019684
INCLINATION    = 42.9995
RA_OF_ASC_NODE = 231.3853
ARG_OF_PERICENTER = 269.7685
MEAN_ANOMALY   = 351.9549

EPHEMERIS_TYPE = 0
CLASSIFICATION_TYPE = U
NORAD_CAT_ID   = 67627
ELEMENT_SET_NO = 999
REV_AT_EPOCH   = 501
BSTAR          = .76637809E-4
MEAN_MOTION_DOT = .12E-3
MEAN_MOTION_DDOT = 0

CCSDS_OMM_VERS = 2.0
CREATION_DATE  = 
ORIGINATOR     = 

OBJECT_NAME    = STARLINK-36532
OBJECT_ID      = 2026-020M
CENTER_NAME    = EARTH
REF_FRAME      = TEME
TIME_SYSTEM    = UTC
MEAN_ELEMENT_THEORY = SGP/SGP4

EPOCH          = 2026-02-21T00:00:02.000160
MEAN_MOTION    = 15.82335971
ECCENTRICITY   = .00017538
INCLINATION    = 42.9990
RA_OF_ASC_NODE = 243.0484
ARG_OF_PERICENTER = 255.9501
MEAN_ANOMALY   = 269.5962

EPHEMERIS_TYPE = 0
CLASSIFICATION_TYPE = U
NORAD_CAT_ID   = 67628
ELEMENT_SET_NO = 999
REV_AT_EPOCH   = 470
BSTAR          = -.56006967E-2
MEAN_MOTION_DOT = -.1059876E-1
MEAN_MOTION_DDOT = 0

CCSDS_OMM_VERS = 2.0
CREATION_DATE  = 
ORIGINATOR     = 

OBJECT_NAME    = STARLINK-36367
OBJECT_ID      = 2026-020N
CENTER_NAME    = EARTH
REF_FRAME      = TEME
TIME_SYSTEM    = UTC
MEAN_ELEMENT_THEORY = SGP/SGP4

EPOCH          = 2026-02-22T19:53:59.655552
MEAN_MOTION    = 15.76473946
ECCENTRICITY   = .00025222
INCLINATION    = 42.9975
RA_OF_ASC_NODE = 232.2243
ARG_OF_PERICENTER = 281.7095
MEAN_ANOMALY   = 78.3492

EPHEMERIS_TYPE = 0
CLASSIFICATION_TYPE = U
NORAD_CAT_ID   = 67629
ELEMENT_SET_NO = 999
REV_AT_EPOCH   = 374
BSTAR          = .12875951E-2
MEAN_MOTION_DOT = .21564E-2
MEAN_MOTION_DDOT = 0

CCSDS_OMM_VERS = 2.0
CREATION_DATE  = 
ORIGINATOR     = 

OBJECT_NAME    = STARLINK-36416
OBJECT_ID      = 2026-020P
CENTER_NAME    = EARTH
REF_FRAME      = TEME
TIME_SYSTEM    = UTC
MEAN_ELEMENT_THEORY = SGP/SGP4

EPOCH          = 2026-02-22T21:47:18.716928
MEAN_MOTION    = 15.76420619
ECCENTRICITY   = .00015398
INCLINATION    = 42.9980
RA_OF_ASC_NODE = 231.9646
ARG_OF_PERICENTER = 286.7585
MEAN_ANOMALY   = 73.3115

EPHEMERIS_TYPE = 0
CLASSIFICATION_TYPE = U
NORAD_CAT_ID   = 67630
ELEMENT_SET_NO = 999
REV_AT_EPOCH   = 375
BSTAR          = .75723065E-3
MEAN_MOTION_DOT = .124953E-2
MEAN_MOTION_DDOT = 0

CCSDS_OMM_VERS = 2.0
CREATION_DATE  = 
ORIGINATOR     = 

OBJECT_NAME    = STARLINK-36527
OBJECT_ID      = 2026-020Q
CENTER_NAME    = EARTH
REF_FRAME      = TEME
TIME_SYSTEM    = UTC
MEAN_ELEMENT_THEORY = SGP/SGP4

EPOCH          = 2026-02-22T20:44:02.530752
MEAN_MOTION    = 15.82033993
ECCENTRICITY   = .0003436
INCLINATION    = 42.9984
RA_OF_ASC_NODE = 231.6086
ARG_OF_PERICENTER = 320.3353
MEAN_ANOMALY   = 39.7267

EPHEMERIS_TYPE = 0
CLASSIFICATION_TYPE = U
NORAD_CAT_ID   = 67631
ELEMENT_SET_NO = 999
REV_AT_EPOCH   = 375
BSTAR          = .18648711E-2
MEAN_MOTION_DOT = .41178E-2
MEAN_MOTION_DDOT = 0

CCSDS_OMM_VERS = 2.0
CREATION_DATE  = 
ORIGINATOR     = 

OBJECT_NAME    = STARLINK-36633
OBJECT_ID      = 2026-020R
CENTER_NAME    = EARTH
REF_FRAME      = TEME
TIME_SYSTEM    = UTC
MEAN_ELEMENT_THEORY = SGP/SGP4

EPOCH          = 2026-02-22T22:00:01.999584
MEAN_MOTION    = 15.76319483
ECCENTRICITY   = .00014233
INCLINATION    = 42.9998
RA_OF_ASC_NODE = 231.4791
ARG_OF_PERICENTER = 253.2854
MEAN_ANOMALY   = 331.1656

EPHEMERIS_TYPE = 0
CLASSIFICATION_TYPE = U
NORAD_CAT_ID   = 67632
ELEMENT_SET_NO = 999
REV_AT_EPOCH   = 501
BSTAR          = .21276873E-3
MEAN_MOTION_DOT = .34228E-3
MEAN_MOTION_DDOT = 0

CCSDS_OMM_VERS = 2.0
CREATION_DATE  = 
ORIGINATOR     = 

OBJECT_NAME    = STARLINK-36637
OBJECT_ID      = 2026-020S
CENTER_NAME    = EARTH
REF_FRAME      = TEME
TIME_SYSTEM    = UTC
MEAN_ELEMENT_THEORY = SGP/SGP4

EPOCH          = 2026-02-22T20:12:55.400832
MEAN_MOTION    = 15.76500454
ECCENTRICITY   = .00023887
INCLINATION    = 42.9984
RA_OF_ASC_NODE = 232.3326
ARG_OF_PERICENTER = 300.5102
MEAN_ANOMALY   = 59.5532

EPHEMERIS_TYPE = 0
CLASSIFICATION_TYPE = U
NORAD_CAT_ID   = 67633
ELEMENT_SET_NO = 999
REV_AT_EPOCH   = 374
BSTAR          = .23298551E-2
MEAN_MOTION_DOT = .399718E-2
MEAN_MOTION_DDOT = 0

CCSDS_OMM_VERS = 2.0
CREATION_DATE  = 
ORIGINATOR     = 

OBJECT_NAME    = STARLINK-36617
OBJECT_ID      = 2026-020T
CENTER_NAME    = EARTH
REF_FRAME      = TEME
TIME_SYSTEM    = UTC
MEAN_ELEMENT_THEORY = SGP/SGP4

EPOCH          = 2026-02-21T15:53:47.733792
MEAN_MOTION    = 15.81877180
ECCENTRICITY   = .0007515
INCLINATION    = 42.9998
RA_OF_ASC_NODE = 238.9420
ARG_OF_PERICENTER = 299.3204
MEAN_ANOMALY   = 60.6916

EPHEMERIS_TYPE = 0
CLASSIFICATION_TYPE = U
NORAD_CAT_ID   = 67634
ELEMENT_SET_NO = 999
REV_AT_EPOCH   = 356
BSTAR          = .16589E-2
MEAN_MOTION_DOT = .361859E-2
MEAN_MOTION_DDOT = 0

CCSDS_OMM_VERS = 2.0
CREATION_DATE  = 
ORIGINATOR     = 

OBJECT_NAME    = STARLINK-36627
OBJECT_ID      = 2026-020U
CENTER_NAME    = EARTH
REF_FRAME      = TEME
TIME_SYSTEM    = UTC
MEAN_ELEMENT_THEORY = SGP/SGP4

EPOCH          = 2026-02-22T18:32:13.331328
MEAN_MOTION    = 15.76477140
ECCENTRICITY   = .00002194
INCLINATION    = 42.9984
RA_OF_ASC_NODE = 232.6628
ARG_OF_PERICENTER = 228.6121
MEAN_ANOMALY   = 131.4730

EPHEMERIS_TYPE = 0
CLASSIFICATION_TYPE = U
NORAD_CAT_ID   = 67635
ELEMENT_SET_NO = 999
REV_AT_EPOCH   = 373
BSTAR          = .18620469E-2
MEAN_MOTION_DOT = .315873E-2
MEAN_MOTION_DDOT = 0

